{
  "links" : {
    "next" : "https://api.nasa.gov/neo/rest/v1/feed?start_date=2000-06-16&end_date=2000-06-16&detailed=true&api_key=t0TVs3DtDT2H8Oy2Zy8m2eVrNsAVKAexjcZXUckd",
    "prev" : "https://api.nasa.gov/neo/rest/v1/feed?start_date=2000-06-14&end_date=2000-06-14&detailed=true&api_key=t0TVs3DtDT2H8Oy2Zy8m2eVrNsAVKAexjcZXUckd",
    "self" : "https://api.nasa.gov/neo/rest/v1/feed?start_date=2000-06-15&end_date=2000-06-15&detailed=true&api_key=t0TVs3DtDT2H8Oy2Zy8m2eVrNsAVKAexjcZXUckd"
  },
  "element_count" : 5,
  "near_earth_objects" : {
    "2000-06-15" : [ {
      "links" : {
        "self" : "https://api.nasa.gov/neo/rest/v1/neo/3561033?api_key=t0TVs3DtDT2H8Oy2Zy8m2eVrNsAVKAexjcZXUckd"
      },
      "neo_reference_id" : "3561033",
      "name" : "(2011 GH3)",
      "nasa_jpl_url" : "http://ssd.jpl.nasa.gov/sbdb.cgi?sstr=3561033",
      "absolute_magnitude_h" : 18.5,
      "estimated_diameter" : {
        "kilometers" : {
          "estimated_diameter_min" : 0.5303407233,
          "estimated_diameter_max" : 1.1858779086
        },
        "meters" : {
          "estimated_diameter_min" : 530.3407233187,
          "estimated_diameter_max" : 1185.8779085771
        },
        "miles" : {
          "estimated_diameter_min" : 0.3295383456,
          "estimated_diameter_max" : 0.7368701419
        },
        "feet" : {
          "estimated_diameter_min" : 1739.963058693,
          "estimated_diameter_max" : 3890.675677576
        }
      },
      "is_potentially_hazardous_asteroid" : false,
      "close_approach_data" : [ {
        "close_approach_date" : "2000-06-15",
        "epoch_date_close_approach" : 961052400000,
        "relative_velocity" : {
          "kilometers_per_second" : "18.4800776254",
          "kilometers_per_hour" : "66528.2794514771",
          "miles_per_hour" : "41338.0856402803"
        },
        "miss_distance" : {
          "astronomical" : "0.3301125353",
          "lunar" : "128.4137878418",
          "kilometers" : "49384136",
          "miles" : "30685878"
        },
        "orbiting_body" : "Earth"
      } ],
      "orbital_data" : {
        "orbit_id" : "21",
        "orbit_determination_date" : "2017-04-06 08:53:50",
        "orbit_uncertainty" : "1",
        "minimum_orbit_intersection" : ".149089",
        "jupiter_tisserand_invariant" : "3.021",
        "epoch_osculation" : "2458000.5",
        "eccentricity" : ".7711585827438168",
        "semi_major_axis" : "2.393690253983231",
        "inclination" : "11.26260604413672",
        "ascending_node_longitude" : "102.7062431498874",
        "orbital_period" : "1352.696462208825",
        "perihelion_distance" : ".5477754701938358",
        "perihelion_argument" : "218.0227165766237",
        "aphelion_distance" : "4.239605037772626",
        "perihelion_time" : "2458511.152850081785",
        "mean_anomaly" : "224.0973557887055",
        "mean_motion" : ".2661350939087652",
        "equinox" : "J2000"
      }
    }, {
      "links" : {
        "self" : "https://api.nasa.gov/neo/rest/v1/neo/3776011?api_key=t0TVs3DtDT2H8Oy2Zy8m2eVrNsAVKAexjcZXUckd"
      },
      "neo_reference_id" : "3776011",
      "name" : "(2017 MZ2)",
      "nasa_jpl_url" : "http://ssd.jpl.nasa.gov/sbdb.cgi?sstr=3776011",
      "absolute_magnitude_h" : 25.651,
      "estimated_diameter" : {
        "kilometers" : {
          "estimated_diameter_min" : 0.0196949543,
          "estimated_diameter_max" : 0.0440392565
        },
        "meters" : {
          "estimated_diameter_min" : 19.6949542634,
          "estimated_diameter_max" : 44.0392565468
        },
        "miles" : {
          "estimated_diameter_min" : 0.0122378734,
          "estimated_diameter_max" : 0.0273647169
        },
        "feet" : {
          "estimated_diameter_min" : 64.6159937456,
          "estimated_diameter_max" : 144.4857544489
        }
      },
      "is_potentially_hazardous_asteroid" : false,
      "close_approach_data" : [ {
        "close_approach_date" : "2000-06-15",
        "epoch_date_close_approach" : 961052400000,
        "relative_velocity" : {
          "kilometers_per_second" : "8.7808305347",
          "kilometers_per_hour" : "31610.9899249247",
          "miles_per_hour" : "19641.8398230734"
        },
        "miss_distance" : {
          "astronomical" : "0.0544640942",
          "lunar" : "21.1865329742",
          "kilometers" : "8147712.5",
          "miles" : "5062754"
        },
        "orbiting_body" : "Earth"
      } ],
      "orbital_data" : {
        "orbit_id" : "3",
        "orbit_determination_date" : "2017-07-02 06:21:59",
        "orbit_uncertainty" : "5",
        "minimum_orbit_intersection" : ".014082",
        "jupiter_tisserand_invariant" : "6.572",
        "epoch_osculation" : "2458000.5",
        "eccentricity" : ".3084632435194955",
        "semi_major_axis" : ".8973365466859388",
        "inclination" : "11.66123607236532",
        "ascending_node_longitude" : "260.9172617565177",
        "orbital_period" : "310.4784495118197",
        "perihelion_distance" : ".6205412049666109",
        "perihelion_argument" : "234.2994041911559",
        "aphelion_distance" : "1.174131888405266",
        "perihelion_time" : "2458146.063953372274",
        "mean_anomaly" : "191.2184845794794",
        "mean_motion" : "1.15950076588583",
        "equinox" : "J2000"
      }
    } ]
  }
}